{
    "links": {
        "self": "http://www.neowsapp.com/rest/v1/neo/3829482?api_key=iIulBulltgU6a56xZRHN4H3l9WmuAYTsLGpBGhQ2"
    },
    "id": "3829482",
    "neo_reference_id": "3829482",
    "name": "(2018 RG8)",
    "designation": "2018 RG8",
    "nasa_jpl_url": "http://ssd.jpl.nasa.gov/sbdb.cgi?sstr=3829482",
    "absolute_magnitude_h": 26.8,
    "estimated_diameter": {
        "kilometers": {
            "estimated_diameter_min": 0.0116025908,
            "estimated_diameter_max": 0.0259441818
        },
        "meters": {
            "estimated_diameter_min": 11.6025908209,
            "estimated_diameter_max": 25.9441817907
        },
        "miles": {
            "estimated_diameter_min": 0.0072095135,
            "estimated_diameter_max": 0.0161209622
        },
        "feet": {
            "estimated_diameter_min": 38.066244069,
            "estimated_diameter_max": 85.1187093863
        }
    },
    "is_potentially_hazardous_asteroid": false,
    "close_approach_data": [
        {
            "close_approach_date": "2018-09-16",
            "close_approach_date_full": "2018-Sep-16 22:45",
            "epoch_date_close_approach": 1537137900000,
            "relative_velocity": {
                "kilometers_per_second": "6.9887114932",
                "kilometers_per_hour": "25159.3613754473",
                "miles_per_hour": "15633.0487390939"
            },
            "miss_distance": {
                "astronomical": "0.0091000617",
                "lunar": "3.5399240013",
                "kilometers": "1361349.847188579",
                "miles": "845903.5699732302"
            },
            "orbiting_body": "Earth"
        },
        {
            "close_approach_date": "2090-08-05",
            "close_approach_date_full": "2090-Aug-05 03:58",
            "epoch_date_close_approach": 3805588680000,
            "relative_velocity": {
                "kilometers_per_second": "18.6496888902",
                "kilometers_per_hour": "67138.8800046872",
                "miles_per_hour": "41717.489078468"
            },
            "miss_distance": {
                "astronomical": "0.4151978973",
                "lunar": "161.5119820497",
                "kilometers": "62112721.064558751",
                "miles": "38595055.1930267238"
            },
            "orbiting_body": "Earth"
        }
    ],
    "orbital_data": {
        "orbit_id": "4",
        "orbit_determination_date": "2018-09-19 07:00:25",
        "first_observation_date": "2018-09-15",
        "last_observation_date": "2018-09-18",
        "data_arc_in_days": 3,
        "observations_used": 31,
        "orbit_uncertainty": "7",
        "minimum_orbit_intersection": ".0043701",
        "jupiter_tisserand_invariant": "4.128",
        "epoch_osculation": "2459000.5",
        "eccentricity": ".4069156584309887",
        "semi_major_axis": "1.680910070387232",
        "inclination": "6.284315515440769",
        "ascending_node_longitude": "175.5798059484678",
        "orbital_period": "796.0038081989264",
        "perihelion_distance": ".9969214423323319",
        "perihelion_argument": "196.666381049135",
        "aphelion_distance": "2.364898698442132",
        "perihelion_time": "2459189.914278032992",
        "mean_anomaly": "274.3356609735763",
        "mean_motion": ".4522591428482635",
        "equinox": "J2000",
        "orbit_class": {
            "orbit_class_type": "APO",
            "orbit_class_description": "Near-Earth asteroid orbits which cross the Earth’s orbit similar to that of 1862 Apollo",
            "orbit_class_range": "a (semi-major axis) > 1.0 AU; q (perihelion) < 1.017 AU"
        }
    },
    "is_sentry_object": false
}